{
  "type": "FeatureCollection",
  "features": [
    {
      "type": "Feature",
      "properties": {
        "norad_id": 37781,
        "name": "HAIYANG-2A",
        "group": "resource",
        "lat": -22.20379882317652,
        "lon": -0.7264216440689985,
        "alt_km": 973.3513118339843,
        "timestamp": "2025-12-20T14:38:01.615295+00:00",
        "meta_object_name": "HAIYANG-2A",
        "meta_object_id": "2011-043A",
        "meta_epoch": "2025-12-20T06:02:06.438624",
        "meta_mean_motion": 13.78836929,
        "meta_eccentricity": 0.00016515,
        "meta_inclination": 99.3371,
        "meta_ra_of_asc_node": 355.0704,
        "meta_arg_of_pericenter": 73.2534,
        "meta_mean_anomaly": 286.8798,
        "meta_ephemeris_type": 0,
        "meta_classification_type": "U",
        "meta_norad_cat_id": 37781,
        "meta_element_set_no": 999,
        "meta_rev_at_epoch": 72202,
        "meta_bstar": 0.00033885074,
        "meta_mean_motion_dot": 3.01e-06,
        "meta_mean_motion_ddot": 0,
        "tle_line1": "1 37781U 11043A   25354.25146341  .00000301  00000+0  33885-3 0  9993",
        "tle_line2": "2 37781  99.3371 355.0704 0001651  73.2534 286.8798 13.78836929722028"
      },
      "geometry": {
        "type": "Point",
        "coordinates": [
          -0.7264216440689985,
          -22.20379882317652
        ]
      }
    },
    {
      "type": "Feature",
      "properties": {
        "norad_id": 37791,
        "name": "RASAT",
        "group": "resource",
        "lat": 80.94513711255969,
        "lon": -33.40754988827027,
        "alt_km": 651.0979477746414,
        "timestamp": "2025-12-20T14:38:01.615306+00:00",
        "meta_object_name": "RASAT",
        "meta_object_id": "2011-044D",
        "meta_epoch": "2025-12-20T06:24:33.019776",
        "meta_mean_motion": 14.67919699,
        "meta_eccentricity": 0.00215447,
        "meta_inclination": 98.0652,
        "meta_ra_of_asc_node": 83.4132,
        "meta_arg_of_pericenter": 42.3309,
        "meta_mean_anomaly": 41.71,
        "meta_ephemeris_type": 0,
        "meta_classification_type": "U",
        "meta_norad_cat_id": 37791,
        "meta_element_set_no": 999,
        "meta_rev_at_epoch": 76693,
        "meta_bstar": 0.000101554,
        "meta_mean_motion_dot": 5.34e-06,
        "meta_mean_motion_ddot": 0,
        "tle_line1": "1 37791U 11044D   25354.26704884  .00000534  00000+0  10155-3 0  9991",
        "tle_line2": "2 37791  98.0652  83.4132 0021544  42.3309  41.7100 14.67919699766932"
      },
      "geometry": {
        "type": "Point",
        "coordinates": [
          -33.40754988827027,
          80.94513711255969
        ]
      }
    },
    {
      "type": "Feature",
      "properties": {
        "norad_id": 37841,
        "name": "SRMSAT",
        "group": "resource",
        "lat": -4.1020957352710194,
        "lon": -108.2896584563639,
        "alt_km": 860.0162997887064,
        "timestamp": "2025-12-20T14:38:01.615316+00:00",
        "meta_object_name": "SRMSAT",
        "meta_object_id": "2011-058D",
        "meta_epoch": "2025-12-20T05:22:56.230752",
        "meta_mean_motion": 14.11513872,
        "meta_eccentricity": 0.00119421,
        "meta_inclination": 19.9724,
        "meta_ra_of_asc_node": 62.6529,
        "meta_arg_of_pericenter": 35.7334,
        "meta_mean_anomaly": 353.2285,
        "meta_ephemeris_type": 0,
        "meta_classification_type": "U",
        "meta_norad_cat_id": 37841,
        "meta_element_set_no": 999,
        "meta_rev_at_epoch": 73250,
        "meta_bstar": 6.8547833e-05,
        "meta_mean_motion_dot": 3.91e-06,
        "meta_mean_motion_ddot": 0,
        "tle_line1": "1 37841U 11058D   25354.22426193  .00000391  00000+0  68548-4 0  9993",
        "tle_line2": "2 37841  19.9724  62.6529 0011942  35.7334 353.2285 14.11513872732507"
      },
      "geometry": {
        "type": "Point",
        "coordinates": [
          -108.2896584563639,
          -4.1020957352710194
        ]
      }
    },
    {
      "type": "Feature",
      "properties": {
        "norad_id": 38012,
        "name": "PLEIADES 1A",
        "group": "resource",
        "lat": -15.383647102679122,
        "lon": 69.52604638880703,
        "alt_km": 702.5519902186434,
        "timestamp": "2025-12-20T14:38:01.615327+00:00",
        "meta_object_name": "PLEIADES 1A",
        "meta_object_id": "2011-076F",
        "meta_epoch": "2025-12-20T06:53:29.067072",
        "meta_mean_motion": 14.58567907,
        "meta_eccentricity": 0.00011423,
        "meta_inclination": 98.1822,
        "meta_ra_of_asc_node": 66.9397,
        "meta_arg_of_pericenter": 75.6402,
        "meta_mean_anomaly": 16.0327,
        "meta_ephemeris_type": 0,
        "meta_classification_type": "U",
        "meta_norad_cat_id": 38012,
        "meta_element_set_no": 999,
        "meta_rev_at_epoch": 74591,
        "meta_bstar": 7.2035107e-05,
        "meta_mean_motion_dot": 2.89e-06,
        "meta_mean_motion_ddot": 0,
        "tle_line1": "1 38012U 11076F   25354.28714198  .00000289  00000+0  72035-4 0  9997",
        "tle_line2": "2 38012  98.1822  66.9397 0001142  75.6402  16.0327 14.58567907745915"
      },
      "geometry": {
        "type": "Point",
        "coordinates": [
          69.52604638880703,
          -15.383647102679122
        ]
      }
    },
    {
      "type": "Feature",
      "properties": {
        "norad_id": 38038,
        "name": "ZIYUAN 1-02C (ZY 1-02C)",
        "group": "resource",
        "lat": 30.603360338408354,
        "lon": 55.44466961983842,
        "alt_km": 763.0801535641231,
        "timestamp": "2025-12-20T14:38:01.615342+00:00",
        "meta_object_name": "ZIYUAN 1-02C (ZY 1-02C)",
        "meta_object_id": "2011-079A",
        "meta_epoch": "2025-12-20T06:33:04.516416",
        "meta_mean_motion": 14.38019863,
        "meta_eccentricity": 0.00074396,
        "meta_inclination": 98.4331,
        "meta_ra_of_asc_node": 60.1482,
        "meta_arg_of_pericenter": 118.7862,
        "meta_mean_anomaly": 329.9519,
        "meta_ephemeris_type": 0,
        "meta_classification_type": "U",
        "meta_norad_cat_id": 38038,
        "meta_element_set_no": 999,
        "meta_rev_at_epoch": 73349,
        "meta_bstar": 0.000123465,
        "meta_mean_motion_dot": 3.3e-06,
        "meta_mean_motion_ddot": 0,
        "tle_line1": "1 38038U 11079A   25354.27296894  .00000330  00000+0  12347-3 0  9991",
        "tle_line2": "2 38038  98.4331  60.1482 0007439 118.7862 329.9519 14.38019863733496"
      },
      "geometry": {
        "type": "Point",
        "coordinates": [
          55.44466961983842,
          30.603360338408354
        ]
      }
    },
    {
      "type": "Feature",
      "properties": {
        "norad_id": 38338,
        "name": "ARIRANG-3 (KOMPSAT-3)",
        "group": "resource",
        "lat": -28.453971940870847,
        "lon": -46.18537944575899,
        "alt_km": 690.2036234053867,
        "timestamp": "2025-12-20T14:38:01.615354+00:00",
        "meta_object_name": "ARIRANG-3 (KOMPSAT-3)",
        "meta_object_id": "2012-025B",
        "meta_epoch": "2025-12-20T06:33:02.636352",
        "meta_mean_motion": 14.61721829,
        "meta_eccentricity": 0.00048995,
        "meta_inclination": 98.3333,
        "meta_ra_of_asc_node": 308.9194,
        "meta_arg_of_pericenter": 312.5672,
        "meta_mean_anomaly": 47.5115,
        "meta_ephemeris_type": 0,
        "meta_classification_type": "U",
        "meta_norad_cat_id": 38338,
        "meta_element_set_no": 999,
        "meta_rev_at_epoch": 72520,
        "meta_bstar": 8.9258561e-05,
        "meta_mean_motion_dot": 3.96e-06,
        "meta_mean_motion_ddot": 0,
        "tle_line1": "1 38338U 12025B   25354.27294718  .00000396  00000+0  89259-4 0  9998",
        "tle_line2": "2 38338  98.3333 308.9194 0004899 312.5672  47.5115 14.61721829725206"
      },
      "geometry": {
        "type": "Point",
        "coordinates": [
          -46.18537944575899,
          -28.453971940870847
        ]
      }
    },
    {
      "type": "Feature",
      "properties": {
        "norad_id": 38709,
        "name": "EXACTVIEW-1 (ADS-1B)",
        "group": "resource",
        "lat": 7.9357741448773735,
        "lon": 101.90398003694568,
        "alt_km": 804.7022390259317,
        "timestamp": "2025-12-20T14:38:01.615365+00:00",
        "meta_object_name": "EXACTVIEW-1 (ADS-1B)",
        "meta_object_id": "2012-039C",
        "meta_epoch": "2025-12-19T21:44:37.095360",
        "meta_mean_motion": 14.24910684,
        "meta_eccentricity": 0.0010313,
        "meta_inclination": 98.9639,
        "meta_ra_of_asc_node": 102.4464,
        "meta_arg_of_pericenter": 333.0281,
        "meta_mean_anomaly": 27.036,
        "meta_ephemeris_type": 0,
        "meta_classification_type": "U",
        "meta_norad_cat_id": 38709,
        "meta_element_set_no": 999,
        "meta_rev_at_epoch": 69717,
        "meta_bstar": 6.0667e-05,
        "meta_mean_motion_dot": 9.5e-07,
        "meta_mean_motion_ddot": 0,
        "tle_line1": "1 38709U 12039C   25353.90598490  .00000095  00000+0  60667-4 0  9996",
        "tle_line2": "2 38709  98.9639 102.4464 0010313 333.0281  27.0360 14.24910684697179"
      },
      "geometry": {
        "type": "Point",
        "coordinates": [
          101.90398003694568,
          7.9357741448773735
        ]
      }
    }
  ]
}